STARLINK-31741          
1 59550U 24074S   25314.65829833  .00002957  00000+0  11696-3 0  9998
2 59550  43.0010 295.4359 0000653 254.4594 105.6186 15.27571212 87812
STARLINK-31699          
1 59551U 24074T   25314.67243450 -.00000244  00000+0  65379-6 0  9994
2 59551  43.0025 295.5459 0000966 260.0589 100.0154 15.27576997 87814
STARLINK-31750          
1 59552U 24074U   25314.94554191  .00000964  00000+0  44559-4 0  9995
2 59552  43.0046 294.1538 0001326 238.2848 121.7874 15.27575379 87853
STARLINK-31723          
1 59553U 24074V   25314.35320764  .00000709  00000+0  35301-4 0  9990
2 59553  43.0023 297.4493 0001135 240.8219 119.2519 15.27572981 87768
STARLINK-31724          
1 59554U 24074W   25314.87833019  .00002307  00000+0  93299-4 0  9996
2 59554  42.9977 258.4688 0000622 302.6249  57.4542 15.27583872 88253
STARLINK-31730          
1 59555U 24074X   25314.64430021  .00014681  00000+0  54162-3 0  9991
2 59555  43.0014 296.1919 0000805 348.2837  11.7996 15.27600288 87803
STARLINK-31718          
1 59556U 24074Y   25314.95967897  .00009053  00000+0  33810-3 0  9996
2 59556  43.0013 294.2596 0001104 260.3764  99.6963 15.27580448 87858
STARLINK-31747          
1 59564U 24076A   25314.67711862  .00000083  00000+0  12528-4 0  9993
2 59564  43.0036 310.5378 0001597 283.4691  76.5982 15.27587420 88418
STARLINK-31388          
1 59565U 24076B   25314.70906547  .00007413  00000+0  27862-3 0  9994
2 59565  43.0002 321.1741 0001881 278.8437  81.2201 15.27582457 88306
STARLINK-31332          
1 59566U 24076C   25314.41410779  .00000417  00000+0  24695-4 0  9999
2 59566  43.0041 322.3792 0001150 239.3639 120.7099 15.27568792 88269
STARLINK-31689          
1 59567U 24076D   25314.70312777  .00006447  00000+0  24360-3 0  9998
2 59567  42.9976 317.6554 0000594 326.7904  33.2910 15.27578722 88348
STARLINK-31471          
1 59568U 24076E   25314.74746693 -.00000258  00000+0  17441-6 0  9991
2 59568  43.0061 320.5819 0001685 266.3827  93.6832 15.27566661 88227
STARLINK-31470          
1 59569U 24076F   25314.69670698  .00003584  00000+0  13971-3 0  9992
2 59569  43.0041 317.6118 0000371 304.1513  55.9303 15.27573017 88259
STARLINK-31587          
1 59570U 24076G   25314.11674022 -.00001112  00000+0 -30928-4 0  9995
2 59570  43.0016 324.4524 0001195 277.4358  82.6358 15.27562684 88237
STARLINK-31606          
1 59571U 24076H   25315.00003472  .00065052  00000+0  23528-2 0  9997
2 59571  43.0025 318.8842 0000852 249.0849 174.7612 15.27579339  5732
STARLINK-31666          
1 59572U 24076J   25314.69075199  .00001502  00000+0  64126-4 0  9998
2 59572  43.0024 314.0717 0001069 251.5934 108.4802 15.27569854 88383
STARLINK-31683          
1 59573U 24076K   25314.74875125  .00000778  00000+0  37794-4 0  9997
2 59573  43.0011 320.5917 0001199 246.4705 113.6021 15.27578016 88311
STARLINK-31751          
1 59574U 24076L   25314.71677820  .00013368  00000+0  49441-3 0  9997
2 59574  43.0019 321.2261 0000961 280.4629  79.6114 15.27580369 88306
STARLINK-31510          
1 59575U 24076M   25314.43772592 -.00000113  00000+0  53936-5 0  9990
2 59575  43.0018 319.1096 0000476 281.7499  78.3299 15.27577133 88303
STARLINK-31663          
1 59576U 24076N   25314.71292070  .00002330  00000+0  94154-4 0  9998
2 59576  42.9984 321.1831 0000467 276.1337  83.9461 15.27575308 88308
STARLINK-31692          
1 59577U 24076P   25314.37312373 -.00002501  00000+0 -81411-4 0  9994
2 59577  43.0012 322.9034 0001400 283.5698  76.4997 15.27566686 88251
STARLINK-31685          
1 59578U 24076Q   25314.73076139  .00001288  00000+0  56336-4 0  9999
2 59578  43.0019 320.4483 0000765 254.9911 105.0856 15.27571214 88316
STARLINK-31686          
1 59579U 24076R   25314.73461931  .00000871  00000+0  41167-4 0  9991
2 59579  43.0036 320.4813 0000333 288.4686  71.6129 15.27565254 88313
STARLINK-31668          
1 59580U 24076S   25314.06918641  .00021203  00000+0  77793-3 0  9999
2 59580  43.0009 324.0896 0000874 264.1846  95.8906 15.27575221 88210
STARLINK-31690          
1 59581U 24076T   25314.74490483  .00002644  00000+0  10556-3 0  9996
2 59581  42.9988 320.5639 0000183 181.4122 178.6729 15.27580158 88322
STARLINK-31701          
1 59582U 24076U   25314.43342151  .00048742  00000+0  17637-2 0  9996
2 59582  43.0033 322.5265 0000842 293.4279  66.6484 15.27680053 88174
STARLINK-31697          
1 59583U 24076V   25314.75259633 -.00003306  00000+0 -11060-3 0  9998
2 59583  43.0039 320.6197 0001237 266.7653  93.3057 15.27595975 88229
STARLINK-31662          
1 59584U 24076W   25314.37442217  .00013150  00000+0  48653-3 0  9993
2 59584  43.0011 322.9405 0001125 270.2731  89.7992 15.27581415 88254
STARLINK-31702          
1 59585U 24076X   25314.71805140  .00000234  00000+0  18010-4 0  9994
2 59585  43.0014 321.2194 0001322 269.2438  90.8263 15.27583931 88301
STARLINK-31704          
1 59586U 24076Y   25314.96705897  .00031728  00000+0  11567-2 0  9990
2 59586  43.0014 275.9785 0001543 249.5815 110.4871 15.27604949 88833
STARLINK-31770          
1 59601U 24080A   25314.38745927  .00000218  00000+0  17441-4 0  9996
2 59601  43.0006 351.9464 0001444 276.8685  83.2002 15.27573623 87497
STARLINK-31778          
1 59602U 24080B   25314.78155053  .00000679  00000+0  34195-4 0  9992
2 59602  43.0011 346.2906 0000905 272.5912  87.4836 15.27571631 86384
STARLINK-31776          
1 59603U 24080C   25314.45105316  .00009777  00000+0  36401-3 0  9993
2 59603  43.0000 355.0296 0001404 293.8938  66.1766 15.27610017 86256
STARLINK-31765          
1 59604U 24080D   25314.81609251 -.00001235  00000+0 -35363-4 0  9991
2 59604  43.0020 345.6868 0001586 252.8947 107.1731 15.27571994 86398
STARLINK-31767          
1 59605U 24080E   25314.37975912 -.00003200  00000+0 -10688-3 0  9999
2 59605  43.0015 351.8942 0000944 250.6017 109.4732 15.27558927 86281
STARLINK-31782          
1 59606U 24080F   25314.52673944  .00003287  00000+0  12889-3 0  9995
2 59606  43.0008 354.7299 0001561 253.2359 106.8322 15.27583099 86267
STARLINK-31755          
1 59607U 24080G   25314.39982815  .00000451  00000+0  25901-4 0  9991
2 59607  43.0013 355.5002 0000556 244.8153 115.2641 15.27578226 86248
STARLINK-31585          
1 59608U 24080H   25314.78653592 -.00002554  00000+0 -83326-4 0  9995
2 59608  43.0013 345.4608 0001949 275.0627  85.0002 15.27576544 86402
STARLINK-31667          
1 59609U 24080J   25314.79039232  .00000366  00000+0  22806-4 0  9999
2 59609  43.0023 345.4849 0000825 277.3338  82.7420 15.27576751 86393
STARLINK-31729          
1 59610U 24080K   25314.77640738 -.00003880  00000+0 -13161-3 0  9997
2 59610  43.0015 346.2471 0001588 266.4127  93.6543 15.27563382 86380
STARLINK-31448          
1 59611U 24080L   25314.43405650  .00001096  00000+0  49373-4 0  9993
2 59611  43.0029 347.9829 0001367 275.3763  84.6933 15.27571504 86334
STARLINK-31748          
1 59612U 24080M   25314.80710286  .00000411  00000+0  24450-4 0  9998
2 59612  43.0029 345.6170 0000829 272.6931  87.3826 15.27573091 87568
STARLINK-31746          
1 59613U 24080N   25314.79598545  .00011084  00000+0  41154-3 0  9996
2 59613  43.0013 353.2866 0001374 257.3027 102.7671 15.27592686 86303
STARLINK-31762          
1 59614U 24080P   25314.17973140  .00000857  00000+0  40677-4 0  9993
2 59614  43.0014 352.9728 0001672 277.7202  82.3460 15.27573936 86250
STARLINK-31761          
1 59615U 24080Q   25314.79775889  .00001112  00000+0  49936-4 0  9994
2 59615  42.9991 349.8139 0001059 283.2015  76.8719 15.27576098 86344
STARLINK-31768          
1 59616U 24080R   25314.83101977 -.00001384  00000+0 -40743-4 0  9991
2 59616  43.0047 349.2603 0001414 266.6026  93.4664 15.27593314 86356
STARLINK-31769          
1 59617U 24080S   25314.39131802  .00003670  00000+0  14282-3 0  9999
2 59617  43.0023 351.9754 0001488 269.5013  90.5668 15.27584781 86289
STARLINK-31784          
1 59618U 24080T   25314.12799757  .00005463  00000+0  20798-3 0  9991
2 59618  43.0053 356.9019 0002271 276.5781  83.4812 15.27569908 86201
STARLINK-31777          
1 59619U 24080U   25314.39340225 -.00000528  00000+0 -96801-5 0  9992
2 59619  43.0013 355.4492 0001724 270.5977  89.4677 15.27567459 86248
STARLINK-31771          
1 59620U 24080V   25315.00003472  .01166143  00000+0  12387-1 0  9991
2 59620  42.9897 339.4919 0022868  89.3242 148.9052 15.60312250  5925
STARLINK-31758          
1 59621U 24080W   25314.79553162 -.00001309  00000+0 -38062-4 0  9997
2 59621  43.0030 345.5255 0001080 261.1114  98.9615 15.27582865 86392
STARLINK-31774          
1 59622U 24080X   25314.44048021  .00001059  00000+0  48012-4 0  9999
2 59622  42.9992 348.0237 0001132 292.0693  68.0039 15.27571554 86334
STARLINK-31763          
1 59623U 24080Y   25314.78748200  .00002966  00000+0  11724-3 0  9990
2 59623  43.0012 349.7879 0001051 254.6144 105.4592 15.27583332 86343
STARLINK-31749          
1 59631U 24082A   25314.80288269 -.00002353  00000+0 -75955-4 0  9997
2 59631  42.9992  90.8860 0001059 275.8891  84.1840 15.27605197 86830
STARLINK-31781          
1 59632U 24082B   25314.76636706  .00000261  00000+0  19016-4 0  9996
2 59632  42.9999  77.3124 0001230 279.8254  80.2459 15.27582184 86821
STARLINK-31541          
1 59633U 24082C   25314.42185303 -.00002110  00000+0 -67240-4 0  9991
2 59633  43.0014  86.2551 0001391 290.7179  69.3524 15.27554162 86849
STARLINK-31797          
1 59634U 24082D   25314.75677442 -.00000488  00000+0 -82208-5 0  9996
2 59634  43.0016  91.4005 0001321 272.3247  87.7453 15.27593246 86660
STARLINK-31798          
1 59635U 24082E   25314.78890698 -.00001730  00000+0 -53349-4 0  9994
2 59635  43.0023  91.6343 0001290 270.2678  89.8026 15.27587380 86623
STARLINK-31802          
1 59636U 24082F   25314.38887914  .00004766  00000+0  18268-3 0  9998
2 59636  43.0054  93.7936 0001283 266.0892  93.9812 15.27565400 86563
